{"fetched_at":"2026-03-29T16:36:15Z","count":15609,"tles":[{"name":"STARLINK-35664","line1":"1 66223U 25244T   26087.86950874  .00024123  00000+0  82371-3 0  9991","line2":"2 66223  53.1583 140.9880 0001953  91.0379 269.0846 15.30208605 24598","category":"Starlink"}]}