{
  "norad_id": 66223,
  "name": "STARLINK-35664",
  "history": [
    {
      "epoch": "2026-03-28T20:52:05.555136",
      "apogee_km": 476.52837946824,
      "perigee_km": 473.8503736533348,
      "latitude_deg": -21.02764102100061,
      "longitude_deg": 165.7728390400298,
      "semi_major_axis_km": 6853.326376560787,
      "eccentricity": 0.00019538,
      "inclination_deg": 53.1583,
      "raan_deg": 140.988,
      "arg_perigee_deg": 91.0379,
      "mean_anomaly_deg": 269.0846,
      "mean_motion_rev_day": 15.30208605
    }
  ]
}